[{"OBJECT_ID":"1997-076A","OBJECT_NAME":"ASTRA 1G","NORAD_CAT_ID":"25071","OBJECT_TYPE":"PAYLOAD","PERIOD":"1436.084","INCLINATION":"1.7199","APOGEE":"35800.439","PERIGEE":"35772.282","ECCENTRICITY":"0.0003339","MEAN_MOTION":"1.00272627","TLE_LINE1":"1 25071U 97076A   16238.78988852 -.00000003 +00000-0 +00000-0 0  9993","TLE_LINE2":"2 25071 001.7199 079.3721 0003339 079.5780 162.6594 01.00272627068630","LAUNCH_DATE":"1997-12-02","LAUNCH_SITE":"TYURATAM MISSILE AND SPACE COMPLEX","OWNER":"SOCIÉTÉ EUROPÉENNE DES SATELLITES","ORBIT_TYPE":"Geosynchronous","OPERATIONAL_STATUS":"Operational","satInfo":{"lng":87.4968691378191,"lat":0.983850843269681,"elevation":-7.610908167209598,"azimuth":227.50313086218088,"range":42536.86945022534,"height":35790.20761036453,"velocity":3.0744499414229742},"x":358,"y":-16,"dx":1,"dy":-31},{"OBJECT_ID":"1998-006B","OBJECT_NAME":"INMARSAT 3-F5","NORAD_CAT_ID":"25153","OBJECT_TYPE":"PAYLOAD","PERIOD":"1436.085","INCLINATION":"1.9878","APOGEE":"35807.798","PERIGEE":"35764.950","ECCENTRICITY":"0.0005081","MEAN_MOTION":"1.00272579","TLE_LINE1":"1 25153U 98006B   16239.21227043 -.00000315  00000-0  00000+0 0  9990","TLE_LINE2":"2 25153   1.9878  74.5194 0005081  86.0638 196.7390  1.00272579 67973","LAUNCH_DATE":"1998-02-04","LAUNCH_SITE":"FRENCH GUIANA","OWNER":"INTERNATIONAL MARITIME SATELLITE ORGANIZATION (INMARSAT)","ORBIT_TYPE":"Geosynchronous","OPERATIONAL_STATUS":"Operational","satInfo":{"lng":-57.97145719353328,"lat":-3.3850321682366533,"elevation":-11.863476193102825,"azimuth":12.971457193533285,"range":43025.16236623942,"height":35801.535060933136,"velocity":3.0738891655561704},"x":-304,"y":-190,"dx":16,"dy":26},{"OBJECT_ID":"1998-014A","OBJECT_NAME":"NSS 806 (INTELSAT 806)","NORAD_CAT_ID":"25239","OBJECT_TYPE":"PAYLOAD","PERIOD":"1436.090","INCLINATION":"0.0832","APOGEE":"35805.494","PERIGEE":"35767.444","ECCENTRICITY":"0.0004512","MEAN_MOTION":"1.0027224","TLE_LINE1":"1 25239U 98014A   16239.20744501 -.00000307  00000-0  00000+0 0  9997","TLE_LINE2":"2 25239   0.0832 312.5700 0004512 204.0497 205.4708  1.00272240 67739","LAUNCH_DATE":"1998-02-28","LAUNCH_SITE":"AIR FORCE EASTERN TEST RANGE","OWNER":"SOCIÉTÉ EUROPÉENNE DES SATELLITES","ORBIT_TYPE":"Geosynchronous","OPERATIONAL_STATUS":"Operational","satInfo":{"lng":-47.97688231001045,"lat":0.15242112383474243,"elevation":-8.42249791165175,"azimuth":2.9768823100104,"range":42636.52969296642,"height":35798.70234858812,"velocity":3.0738858485172593},"x":-266,"y":-240,"dx":21,"dy":23},{"OBJECT_ID":"1998-033A","OBJECT_NAME":"CHINASAT 5A (CHINASTAR1)","NORAD_CAT_ID":"25354","OBJECT_TYPE":"PAYLOAD","PERIOD":"1436.086","INCLINATION":"0.625","APOGEE":"35807.100","PERIGEE":"35765.669","ECCENTRICITY":"0.0004913","MEAN_MOTION":"1.0027254","TLE_LINE1":"1 25354U 98033A   16239.08668492 -.00000111  00000-0  00000+0 0  9999","TLE_LINE2":"2 25354   0.6250  88.8744 0004913  59.5555  20.5675  1.00272540 71323","LAUNCH_DATE":"1998-05-30","LAUNCH_SITE":"Xichang Space Center, China","OWNER":"PEOPLES REPUBLIC OF CHINA","ORBIT_TYPE":"Geosynchronous","OPERATIONAL_STATUS":"Operational","satInfo":{"lng":9.44447852099854,"lat":-2.8234746106070867,"elevation":-11.321498849944089,"azimuth":305.5555214790014,"range":42952.401651663284,"height":35789.59490997921,"velocity":3.0738567048100376},"x":59,"y":-353,"dx":30,"dy":-5},{"OBJECT_ID":"1998-037A","OBJECT_NAME":"INTELSAT 805","NORAD_CAT_ID":"25371","OBJECT_TYPE":"PAYLOAD","PERIOD":"1436.103","INCLINATION":"0.0617","APOGEE":"35799.428","PERIGEE":"35774.011","ECCENTRICITY":"0.0003014","MEAN_MOTION":"1.00271346","TLE_LINE1":"1 25371U 98037A   16238.59820956 -.00000058  00000-0  00000+0 0  9992","TLE_LINE2":"2 25371   0.0617 284.9180 0003014 253.6117 180.0926  1.00271346 66630","LAUNCH_DATE":"1998-06-18","LAUNCH_SITE":"AIR FORCE EASTERN TEST RANGE","OWNER":"INTERNATIONAL TELECOMMUNICATIONS SATELLITE ORGANIZATION (INTELSAT)","ORBIT_TYPE":"Geosynchronous","OPERATIONAL_STATUS":"Operational","satInfo":{"lng":83.28352916631711,"lat":0.6050226514392563,"elevation":-7.9881030150297025,"azimuth":231.7164708336829,"range":42546.905621826154,"height":35758.28050663116,"velocity":3.075448534371423},"x":355,"y":-42,"dx":4,"dy":-31},{"OBJECT_ID":"1998-050A","OBJECT_NAME":"ASTRA 2A","NORAD_CAT_ID":"25462","OBJECT_TYPE":"PAYLOAD","PERIOD":"1436.109","INCLINATION":"0.0274","APOGEE":"35795.701","PERIGEE":"35777.992","ECCENTRICITY":"0.00021","MEAN_MOTION":"1.00270893","TLE_LINE1":"1 25462U 98050A   16238.91140025 -.00000387 +00000-0 +00000-0 0  9992","TLE_LINE2":"2 25462 000.0274 167.3742 0002100 357.0833 251.7247 01.00270893010410","LAUNCH_DATE":"1998-08-30","LAUNCH_SITE":"TYURATAM MISSILE AND SPACE COMPLEX","OWNER":"SOCIÉTÉ EUROPÉENNE DES SATELLITES","ORBIT_TYPE":"Geosynchronous","OPERATIONAL_STATUS":"Operational","satInfo":{"lng":54.05934957971705,"lat":-0.6371837796567908,"elevation":-9.190663414601156,"azimuth":260.9406504202829,"range":42736.152789350206,"height":35811.988384317396,"velocity":3.0735165778615423},"x":290,"y":-210,"dx":18,"dy":-25},{"OBJECT_ID":"1998-065A","OBJECT_NAME":"INTELSAT 8 (PAS 8)","NORAD_CAT_ID":"25522","OBJECT_TYPE":"PAYLOAD","PERIOD":"1436.075","INCLINATION":"0.3997","APOGEE":"35797.699","PERIGEE":"35774.661","ECCENTRICITY":"0.0002732","MEAN_MOTION":"1.00273271","TLE_LINE1":"1 25522U 98065A   16238.59820956 -.00000058  00000-0  00000+0 0  9991","TLE_LINE2":"2 25522   0.3997  89.5366 0002732  65.5860 203.4091  1.00273271 65202","LAUNCH_DATE":"1998-11-04","LAUNCH_SITE":"TYURATAM MISSILE AND SPACE COMPLEX","OWNER":"UNITED STATES OF AMERICA","ORBIT_TYPE":"Geosynchronous","OPERATIONAL_STATUS":"Operational","satInfo":{"lng":90.21304842456057,"lat":0.31651876668598705,"elevation":-8.271324461100768,"azimuth":224.78695157543942,"range":42573.16434715955,"height":35752.81980301221,"velocity":3.075881297718235},"x":358,"y":1,"dx":0,"dy":-31},{"OBJECT_ID":"1999-006A","OBJECT_NAME":"JCSAT 6","NORAD_CAT_ID":"25630","OBJECT_TYPE":"PAYLOAD","PERIOD":"1436.067","INCLINATION":"1.6878","APOGEE":"35792.010","PERIGEE":"35780.043","ECCENTRICITY":"0.0001419","MEAN_MOTION":"1.00273818","TLE_LINE1":"1 25630U 99006A   16238.86970137 -.00000184  00000-0  00000+0 0  9994","TLE_LINE2":"2 25630   1.6878  81.4976 0001419  94.8435 193.2278  1.00273818 64070","LAUNCH_DATE":"1999-02-16","LAUNCH_SITE":"AIR FORCE EASTERN TEST RANGE","OWNER":"JAPAN","ORBIT_TYPE":"Geosynchronous","OPERATIONAL_STATUS":"Operational","satInfo":{"lng":68.59102232470383,"lat":-0.4685650515948245,"elevation":-9.030502623589442,"azimuth":246.40897767529617,"range":42696.306435499646,"height":35790.353950217126,"velocity":3.0743889281287142},"x":333,"y":-131,"dx":11,"dy":-29},{"OBJECT_ID":"1999-013A","OBJECT_NAME":"ASIASAT 3S","NORAD_CAT_ID":"25657","OBJECT_TYPE":"PAYLOAD","PERIOD":"1436.139","INCLINATION":"1.9067","APOGEE":"35799.899","PERIGEE":"35774.963","ECCENTRICITY":"0.0002957","MEAN_MOTION":"1.00268808","TLE_LINE1":"1 25657U 99013A   16239.53967400 -.00000229  00000-0  00000+0 0  9995","TLE_LINE2":"2 25657   1.9067  79.6511 0002957  90.3650 149.7938  1.00268808 63907","LAUNCH_DATE":"1999-03-21","LAUNCH_SITE":"TYURATAM MISSILE AND SPACE COMPLEX","OWNER":"ASIASAT CORP","ORBIT_TYPE":"Geosynchronous","OPERATIONAL_STATUS":"Operational","satInfo":{"lng":-137.38151168108672,"lat":2.1446945445716277,"elevation":-6.469974549260947,"azimuth":92.38151168108674,"range":42421.59204397524,"height":35802.79137442743,"velocity":3.0745419129312763},"x":-242,"y":263,"dx":-23,"dy":21},{"OBJECT_ID":"1999-014A","OBJECT_NAME":"SEA LAUNCH DEMO","NORAD_CAT_ID":"25661","OBJECT_TYPE":"PAYLOAD","PERIOD":"645.018","INCLINATION":"0.9342","APOGEE":"36048.737","PERIGEE":"653.191","ECCENTRICITY":"0.7156659","MEAN_MOTION":"2.2324941","TLE_LINE1":"1 25661U 99014A   16237.93986442 +.00000012 +00000-0 +42716-3 0  9993","TLE_LINE2":"2 25661 000.9342 247.6650 7156659 165.7040 352.9072 02.23249410142037","LAUNCH_DATE":"1999-03-28","LAUNCH_SITE":"SEA LAUNCH","OWNER":"SEA LAUNCH DEMO","ORBIT_TYPE":"Highly Elliptical Orbit","OPERATIONAL_STATUS":"Unknown","satInfo":{"lng":-32.0759216695422,"lat":1.8897428748741176,"elevation":-8.457718259215635,"azimuth":347.0759216695422,"range":35381.20870448745,"height":28637.309873109334,"velocity":2.5778985042425644},"x":-152,"y":-243,"dx":22,"dy":14},{"OBJECT_ID":"1999-014B","OBJECT_NAME":"BLOCK DM-SL R/B","NORAD_CAT_ID":"25662","OBJECT_TYPE":"ROCKET BODY","PERIOD":"641.992","INCLINATION":"0.6642","APOGEE":"35972.294","PERIGEE":"574.803","ECCENTRICITY":"0.7179528","MEAN_MOTION":"2.24301859","TLE_LINE1":"1 25662U 99014B   16239.15632736 -.00000077  00000-0  40498-4 0  9992","TLE_LINE2":"2 25662   0.6642 178.8405 7179528 279.8127 128.7736  2.24301859142712","LAUNCH_DATE":"1999-03-28","LAUNCH_SITE":"SEA LAUNCH","OWNER":"SEA LAUNCH DEMO","ORBIT_TYPE":"Highly Elliptical Orbit","OPERATIONAL_STATUS":"N/A, derelict rocket body","satInfo":{"lng":-21.923334144638716,"lat":-0.8909367945333007,"elevation":-10.858299352120014,"azimuth":336.9233341446387,"range":36719.58953658804,"height":29688.38301595457,"velocity":2.4359464562515325},"x":-111,"y":-275,"dx":23,"dy":9},{"OBJECT_ID":"1999-027A","OBJECT_NAME":"NIMIQ 1","NORAD_CAT_ID":"25740","OBJECT_TYPE":"PAYLOAD","PERIOD":"1436.131","INCLINATION":"0.0607","APOGEE":"35800.622","PERIGEE":"35773.914","ECCENTRICITY":"0.0003167","MEAN_MOTION":"1.0026939","TLE_LINE1":"1 25740U 99027A   16239.28969440 -.00000226  00000-0  00000+0 0  9998","TLE_LINE2":"2 25740   0.0607 283.6969 0003167 238.4547 190.5539  1.00269390 63298","LAUNCH_DATE":"1999-05-20","LAUNCH_SITE":"TYURATAM MISSILE AND SPACE COMPLEX","OWNER":"CANADA","ORBIT_TYPE":"Geosynchronous","OPERATIONAL_STATUS":"Operational","satInfo":{"lng":-102.94028963453898,"lat":-0.7924555024863871,"elevation":-9.346530253655178,"azimuth":57.940289634538985,"range":42730.97906260451,"height":35789.5811576747,"velocity":3.0748027296873786},"x":-349,"y":80,"dx":-7,"dy":30}]